ASTROCAST-0401          
1 55110U 23001DF  26068.71172895  .00009750  00000+0  37868-3 0  9995
2 55110  97.5547 160.5206 0008142 188.4231 171.6872 15.26258462176022
STARLINK-30116          
1 57465U 23107J   26068.15144248 -.00001702  00000+0 -53767-4 0  9994
2 57465  43.0029 339.2408 0001961 277.6766  82.3863 15.26729842145066
